{
    "links": {
        "self": "http://www.neowsapp.com/rest/v1/neo/3841681?api_key=iIulBulltgU6a56xZRHN4H3l9WmuAYTsLGpBGhQ2"
    },
    "id": "3841681",
    "neo_reference_id": "3841681",
    "name": "(2019 JH)",
    "designation": "2019 JH",
    "nasa_jpl_url": "http://ssd.jpl.nasa.gov/sbdb.cgi?sstr=3841681",
    "absolute_magnitude_h": 26.3,
    "estimated_diameter": {
        "kilometers": {
            "estimated_diameter_min": 0.0146067964,
            "estimated_diameter_max": 0.0326617897
        },
        "meters": {
            "estimated_diameter_min": 14.6067964271,
            "estimated_diameter_max": 32.6617897446
        },
        "miles": {
            "estimated_diameter_min": 0.0090762397,
            "estimated_diameter_max": 0.020295089
        },
        "feet": {
            "estimated_diameter_min": 47.92256199,
            "estimated_diameter_max": 107.1581062656
        }
    },
    "is_potentially_hazardous_asteroid": false,
    "close_approach_data": [
        {
            "close_approach_date": "2019-04-30",
            "close_approach_date_full": "2019-Apr-30 17:45",
            "epoch_date_close_approach": 1556646300000,
            "relative_velocity": {
                "kilometers_per_second": "32.1116568147",
                "kilometers_per_hour": "115601.9645329416",
                "miles_per_hour": "71830.5651288159"
            },
            "miss_distance": {
                "astronomical": "0.0026012102",
                "lunar": "1.0118707678",
                "kilometers": "389135.505342274",
                "miles": "241797.5907164212"
            },
            "orbiting_body": "Moon"
        },
        {
            "close_approach_date": "2019-04-30",
            "close_approach_date_full": "2019-Apr-30 20:37",
            "epoch_date_close_approach": 1556656620000,
            "relative_velocity": {
                "kilometers_per_second": "31.632865135",
                "kilometers_per_hour": "113878.3144861498",
                "miles_per_hour": "70759.5560205746"
            },
            "miss_distance": {
                "astronomical": "0.0031534592",
                "lunar": "1.2266956288",
                "kilometers": "471750.779451904",
                "miles": "293132.3416241152"
            },
            "orbiting_body": "Earth"
        }
    ],
    "orbital_data": {
        "orbit_id": "5",
        "orbit_determination_date": "2019-07-27 14:02:01",
        "first_observation_date": "2019-05-01",
        "last_observation_date": "2019-05-04",
        "data_arc_in_days": 3,
        "observations_used": 47,
        "orbit_uncertainty": "8",
        "minimum_orbit_intersection": ".00160496",
        "jupiter_tisserand_invariant": "2.733",
        "epoch_osculation": "2458605.5",
        "eccentricity": ".8725558031253045",
        "semi_major_axis": "2.468005195608955",
        "inclination": "21.88025835049574",
        "ascending_node_longitude": "40.29602025473967",
        "orbital_period": "1416.17698222021",
        "perihelion_distance": ".3145329400369592",
        "perihelion_argument": "61.31463882500839",
        "aphelion_distance": "4.621477451180952",
        "perihelion_time": "2458562.768712707534",
        "mean_anomaly": "10.86252892005819",
        "mean_motion": ".2542055156380316",
        "equinox": "J2000",
        "orbit_class": {
            "orbit_class_type": "APO",
            "orbit_class_description": "Near-Earth asteroid orbits which cross the Earth’s orbit similar to that of 1862 Apollo",
            "orbit_class_range": "a (semi-major axis) > 1.0 AU; q (perihelion) < 1.017 AU"
        }
    },
    "is_sentry_object": false
}